{
  "type": "FeatureCollection",
  "features": [
    {
      "type": "Feature",
      "properties": {
        "norad_id": 31307,
        "name": "GALAXY 17 (G-17)",
        "group": "intelsat",
        "lat": 1.557352350455368,
        "lon": 121.25260694477979,
        "alt_km": 35798.07062235685,
        "timestamp": "2025-12-02T08:59:32.387211+00:00",
        "meta_object_name": "GALAXY 17 (G-17)",
        "meta_object_id": "2007-016B",
        "meta_epoch": "2025-12-01T18:32:32.106912",
        "meta_mean_motion": 1.00269561,
        "meta_eccentricity": 0.0006148,
        "meta_inclination": 2.4697,
        "meta_ra_of_asc_node": 82.4105,
        "meta_arg_of_pericenter": 155.0529,
        "meta_mean_anomaly": 26.5643,
        "meta_ephemeris_type": 0,
        "meta_classification_type": "U",
        "meta_norad_cat_id": 31307,
        "meta_element_set_no": 999,
        "meta_rev_at_epoch": 6782,
        "meta_bstar": 0,
        "meta_mean_motion_dot": -1.85e-06,
        "meta_mean_motion_ddot": 0,
        "tle_line1": "1 31307U 07016B   25335.77259383 -.00000185  00000+0  00000+0 0  9993",
        "tle_line2": "2 31307   2.4697  82.4105 0006148 155.0529  26.5643  1.00269561 67829"
      },
      "geometry": {
        "type": "Point",
        "coordinates": [
          121.25260694477979,
          1.557352350455368
        ]
      }
    },
    {
      "type": "Feature",
      "properties": {
        "norad_id": 31862,
        "name": "DIRECTV 10",
        "group": "intelsat",
        "lat": -0.003983016859571813,
        "lon": 103.54674195418661,
        "alt_km": 35785.923414682315,
        "timestamp": "2025-12-02T08:59:32.387224+00:00",
        "meta_object_name": "DIRECTV 10",
        "meta_object_id": "2007-032A",
        "meta_epoch": "2025-12-01T15:02:03.106176",
        "meta_mean_motion": 1.00272967,
        "meta_eccentricity": 3.05e-05,
        "meta_inclination": 0.0145,
        "meta_ra_of_asc_node": 137.1241,
        "meta_arg_of_pericenter": 63.3925,
        "meta_mean_anomaly": 352.9493,
        "meta_ephemeris_type": 0,
        "meta_classification_type": "U",
        "meta_norad_cat_id": 31862,
        "meta_element_set_no": 999,
        "meta_rev_at_epoch": 4361,
        "meta_bstar": 0,
        "meta_mean_motion_dot": -8.2e-07,
        "meta_mean_motion_ddot": 0,
        "tle_line1": "1 31862U 07032A   25335.62642484 -.00000082  00000+0  00000+0 0  9995",
        "tle_line2": "2 31862   0.0145 137.1241 0000305  63.3925 352.9493  1.00272967 43610"
      },
      "geometry": {
        "type": "Point",
        "coordinates": [
          103.54674195418661,
          -0.003983016859571813
        ]
      }
    },
    {
      "type": "Feature",
      "properties": {
        "norad_id": 32253,
        "name": "INTELSAT 11 (IS-11)",
        "group": "intelsat",
        "lat": 1.8228584942631443,
        "lon": 117.5560913168551,
        "alt_km": 36154.230951028,
        "timestamp": "2025-12-02T08:59:32.387236+00:00",
        "meta_object_name": "INTELSAT 11 (IS-11)",
        "meta_object_id": "2007-044B",
        "meta_epoch": "2025-12-01T11:41:52.277568",
        "meta_mean_motion": 0.99047742,
        "meta_eccentricity": 0.00092085,
        "meta_inclination": 3.0482,
        "meta_ra_of_asc_node": 81.103,
        "meta_arg_of_pericenter": 159.8514,
        "meta_mean_anomaly": 280.3727,
        "meta_ephemeris_type": 0,
        "meta_classification_type": "U",
        "meta_norad_cat_id": 32253,
        "meta_element_set_no": 999,
        "meta_rev_at_epoch": 6649,
        "meta_bstar": 0,
        "meta_mean_motion_dot": -2.9e-07,
        "meta_mean_motion_ddot": 0,
        "tle_line1": "1 32253U 07044B   25335.48741062 -.00000029  00000+0  00000+0 0  9990",
        "tle_line2": "2 32253   3.0482  81.1030 0009208 159.8514 280.3727  0.99047742 66495"
      },
      "geometry": {
        "type": "Point",
        "coordinates": [
          117.5560913168551,
          1.8228584942631443
        ]
      }
    },
    {
      "type": "Feature",
      "properties": {
        "norad_id": 32388,
        "name": "HORIZONS-2",
        "group": "intelsat",
        "lat": 1.5905737323076987,
        "lon": 132.48942889587093,
        "alt_km": 35798.82257969108,
        "timestamp": "2025-12-02T08:59:32.387261+00:00",
        "meta_object_name": "HORIZONS-2",
        "meta_object_id": "2007-063B",
        "meta_epoch": "2025-12-01T18:36:01.772064",
        "meta_mean_motion": 1.00272703,
        "meta_eccentricity": 0.0004861,
        "meta_inclination": 2.0906,
        "meta_ra_of_asc_node": 83.083,
        "meta_arg_of_pericenter": 179.2837,
        "meta_mean_anomaly": 13.7397,
        "meta_ephemeris_type": 0,
        "meta_classification_type": "U",
        "meta_norad_cat_id": 32388,
        "meta_element_set_no": 999,
        "meta_rev_at_epoch": 6583,
        "meta_bstar": 0,
        "meta_mean_motion_dot": -2.32e-06,
        "meta_mean_motion_ddot": 0,
        "tle_line1": "1 32388U 07063B   25335.77502051 -.00000232  00000+0  00000+0 0  9991",
        "tle_line2": "2 32388   2.0906  83.0830 0004861 179.2837  13.7397  1.00272703 65835"
      },
      "geometry": {
        "type": "Point",
        "coordinates": [
          132.48942889587093,
          1.5905737323076987
        ]
      }
    },
    {
      "type": "Feature",
      "properties": {
        "norad_id": 32729,
        "name": "DIRECTV 11",
        "group": "intelsat",
        "lat": 0.0009798398487421633,
        "lon": 107.1177375562099,
        "alt_km": 35786.85558632026,
        "timestamp": "2025-12-02T08:59:32.387276+00:00",
        "meta_object_name": "DIRECTV 11",
        "meta_object_id": "2008-013A",
        "meta_epoch": "2025-12-01T15:03:17.987328",
        "meta_mean_motion": 1.00262996,
        "meta_eccentricity": 9.13e-05,
        "meta_inclination": 0.0132,
        "meta_ra_of_asc_node": 202.9739,
        "meta_arg_of_pericenter": 327.4852,
        "meta_mean_anomaly": 26.9234,
        "meta_ephemeris_type": 0,
        "meta_classification_type": "U",
        "meta_norad_cat_id": 32729,
        "meta_element_set_no": 999,
        "meta_rev_at_epoch": 4361,
        "meta_bstar": 0,
        "meta_mean_motion_dot": -1.03e-06,
        "meta_mean_motion_ddot": 0,
        "tle_line1": "1 32729U 08013A   25335.62729152 -.00000103  00000+0  00000+0 0  9990",
        "tle_line2": "2 32729   0.0132 202.9739 0000913 327.4852  26.9234  1.00262996 43612"
      },
      "geometry": {
        "type": "Point",
        "coordinates": [
          107.1177375562099,
          0.0009798398487421633
        ]
      }
    },
    {
      "type": "Feature",
      "properties": {
        "norad_id": 32951,
        "name": "GALAXY 18 (G-18)",
        "group": "intelsat",
        "lat": 0.03877464426941124,
        "lon": 83.30240352416725,
        "alt_km": 35800.066543041656,
        "timestamp": "2025-12-02T08:59:32.387288+00:00",
        "meta_object_name": "GALAXY 18 (G-18)",
        "meta_object_id": "2008-024A",
        "meta_epoch": "2025-12-02T02:55:40.385280",
        "meta_mean_motion": 1.00272475,
        "meta_eccentricity": 0.0003391,
        "meta_inclination": 0.0216,
        "meta_ra_of_asc_node": 340.739,
        "meta_arg_of_pericenter": 273.8284,
        "meta_mean_anomaly": 97.5532,
        "meta_ephemeris_type": 0,
        "meta_classification_type": "U",
        "meta_norad_cat_id": 32951,
        "meta_element_set_no": 999,
        "meta_rev_at_epoch": 4387,
        "meta_bstar": 0,
        "meta_mean_motion_dot": 0,
        "meta_mean_motion_ddot": 0,
        "tle_line1": "1 32951U 08024A   25336.12199520  .00000000  00000+0  00000+0 0  9990",
        "tle_line2": "2 32951   0.0216 340.7390 0003391 273.8284  97.5532  1.00272475 43878"
      },
      "geometry": {
        "type": "Point",
        "coordinates": [
          83.30240352416725,
          0.03877464426941124
        ]
      }
    },
    {
      "type": "Feature",
      "properties": {
        "norad_id": 33153,
        "name": "INTELSAT 25 (IS-25)",
        "group": "intelsat",
        "lat": 2.1818372599991056,
        "lon": 174.78958505182607,
        "alt_km": 35783.34316950442,
        "timestamp": "2025-12-02T08:59:32.387300+00:00",
        "meta_object_name": "INTELSAT 25 (IS-25)",
        "meta_object_id": "2008-034A",
        "meta_epoch": "2025-12-02T03:21:43.154784",
        "meta_mean_motion": 1.00271777,
        "meta_eccentricity": 0.0005269,
        "meta_inclination": 2.198,
        "meta_ra_of_asc_node": 82.7686,
        "meta_arg_of_pericenter": 175.7832,
        "meta_mean_anomaly": 191.6351,
        "meta_ephemeris_type": 0,
        "meta_classification_type": "U",
        "meta_norad_cat_id": 33153,
        "meta_element_set_no": 999,
        "meta_rev_at_epoch": 6372,
        "meta_bstar": 0,
        "meta_mean_motion_dot": -2.03e-06,
        "meta_mean_motion_ddot": 0,
        "tle_line1": "1 33153U 08034A   25336.14008281 -.00000203  00000+0  00000+0 0  9997",
        "tle_line2": "2 33153   2.1980  82.7686 0005269 175.7832 191.6351  1.00271777 63725"
      },
      "geometry": {
        "type": "Point",
        "coordinates": [
          174.78958505182607,
          2.1818372599991056
        ]
      }
    }
  ]
}